NORAD_CAT_ID,OBJECT_NAME,OBJECT_TYPE,EPOCH,MEAN_MOTION,ECCENTRICITY,INCLINATION,RA_OF_ASC_NODE,ARG_OF_PERICENTER,MEAN_ANOMALY,BSTAR,MEAN_MOTION_DOT,MEAN_MOTION_DDOT,TLE_LINE0,TLE_LINE1,TLE_LINE2,SEMIMAJOR_AXIS,PERIOD,APOGEE,PERIGEE,DECAYED
54074.0,STARLINK-5192,PAYLOAD,2023-01-17 05:47:11,15.08803452,0.0001278,53.2161,94.8264,91.6519,268.4619,-0.0011554,-0.0001861,0.0,0 STARLINK-5192,1 54074U 22136Z   23017.24110359 -.00018610  00000-0 -11554-2 0  9998,2 54074  53.2161  94.8264 0001278  91.6519 268.4619 15.08803452 14100,6917.991999999999,95.44,540.741,538.9730000000001,0.0
54074.0,STARLINK-5192,PAYLOAD,2023-01-17 12:08:44,15.08813449,0.0001022,53.2155,93.6357,77.2532,282.8574,-0.00037671,-6.274e-05,0.0,0 STARLINK-5192,1 54074U 22136Z   23017.50606958 -.00006274  00000-0 -37671-3 0  9994,2 54074  53.2155  93.6357 0001022  77.2532 282.8574 15.08813449 13662,6917.962,95.439,540.534,539.12,0.0
54074.0,STARLINK-5192,PAYLOAD,2023-01-18 08:48:45,15.08843759,0.0002428,53.217,89.7716,138.4915,221.6262,0.00070079,0.00010884,0.0,0 STARLINK-5192,1 54074U 22136Z   23018.36718758  .00010884  00000-0  70079-3 0  9990,2 54074  53.2170  89.7716 0002428 138.4915 221.6262 15.08843759 14270,6917.869000000001,95.437,541.414,538.054,0.0
54074.0,STARLINK-5192,PAYLOAD,2023-01-18 11:59:31,15.08867446,0.0001334,53.217,89.1754,101.4184,258.6958,0.0015845,0.00025038,0.0,0 STARLINK-5192,1 54074U 22136Z   23018.49966669  .00025038  00000-0  15845-2 0  9996,2 54074  53.2170  89.1754 0001334 101.4184 258.6958 15.08867446 13819,6917.795999999999,95.436,540.5840000000001,538.739,0.0
54074.0,STARLINK-5192,PAYLOAD,2023-01-18 21:31:49,15.08868739,0.0001341999999999,53.2172,87.3917,92.287,267.8276,0.00081285,0.00012682,0.0,0 STARLINK-5192,1 54074U 22136Z   23018.89710146  .00012682  00000-0  81285-3 0  9990,2 54074  53.2172  87.3917 0001342  92.2870 267.8276 15.08868739 14351,6917.793000000001,95.436,540.586,538.729,0.0
54074.0,STARLINK-5192,PAYLOAD,2023-01-19 11:50:17,15.08870873,0.0001125999999999,53.2166,84.7153,97.1219,262.9901,0.00079883,0.00012459,0.0,0 STARLINK-5192,1 54074U 22136Z   23019.49325426  .00012459  00000-0  79883-3 0  9993,2 54074  53.2166  84.7153 0001126  97.1219 262.9901 15.08870873 13967,6917.786,95.436,540.43,538.872,0.0
54074.0,STARLINK-5192,PAYLOAD,2023-01-20 03:44:08,15.088649900000002,0.0001541,53.2169,81.7434,70.9943,289.1216,0.0017518,0.00027721,0.0,0 STARLINK-5192,1 54074U 22136Z   23020.15565754  .00027721  00000-0  17518-2 0  9992,2 54074  53.2169  81.7434 0001541  70.9943 289.1216 15.08864990 14541,6917.804,95.436,540.735,538.6030000000001,0.0
54074.0,STARLINK-5192,PAYLOAD,2023-01-20 10:05:41,15.08837561,8.070000000000001e-05,53.216,80.5522,75.26,284.8481,0.0014187,0.00022361,0.0,0 STARLINK-5192,1 54074U 22136Z   23020.42062224  .00022361  00000-0  14187-2 0  9990,2 54074  53.2160  80.5522 0000807  75.2600 284.8481 15.08837561 14583,6917.888000000001,95.438,540.311,539.195,0.0
54074.0,STARLINK-5192,PAYLOAD,2023-01-20 21:13:23,15.08874018,9.940000000000002e-05,53.2159,78.47,74.0365,286.0737,0.0023463,0.00037286,0.0,0 STARLINK-5192,1 54074U 22136Z   23020.88429751  .00037286  00000-0  23463-2 0  9991,2 54074  53.2159  78.4700 0000994  74.0365 286.0737 15.08874018 14651,6917.776,95.435,540.3290000000001,538.9540000000001,0.0
54074.0,STARLINK-5192,PAYLOAD,2023-01-21 09:56:29,15.08859689,0.0001027,53.2167,76.0925,73.2326,286.8778,0.0021333,0.00033845,0.0,0 STARLINK-5192,1 54074U 22136Z   23021.41422653  .00033845  00000-0  21333-2 0  9996,2 54074  53.2167  76.0925 0001027  73.2326 286.8778 15.08859689 14738,6917.82,95.436,540.396,538.975,0.0
54074.0,STARLINK-5192,PAYLOAD,2023-01-21 21:04:10,15.08859436,0.0001174,53.2174,74.0078,112.9137,247.1979,0.0011007,0.00017282,0.0,0 STARLINK-5192,1 54074U 22136Z   23021.87790338  .00017282  00000-0  11007-2 0  9998,2 54074  53.2174  74.0078 0001174 112.9137 247.1979 15.08859436 14808,6917.821,95.436,540.498,538.874,0.0
54074.0,STARLINK-5192,PAYLOAD,2023-01-22 12:58:01,15.08864955,0.0001399,53.2169,71.0346,108.3889,251.7256,0.0012595,0.00019827,0.0,0 STARLINK-5192,1 54074U 22136Z   23022.54029797  .00019827  00000-0  12595-2 0  9997,2 54074  53.2169  71.0346 0001399 108.3889 251.7256 15.08864955 14901,6917.804,95.436,540.637,538.701,0.0
54074.0,STARLINK-5192,PAYLOAD,2023-01-23 03:16:30,15.08837381,0.0001619,53.2166,68.3565,111.2637,248.8528,1.9355e-05,2e-07,0.0,0 STARLINK-5192,1 54074U 22136Z   23023.13646366  .00000020  00000-0  19355-4 0  9998,2 54074  53.2166  68.3565 0001619 111.2637 248.8528 15.08837381 14990,6917.888000000001,95.438,540.873,538.633,0.0
54074.0,STARLINK-5192,PAYLOAD,2023-01-24 06:18:04,15.08841402,0.0001343,53.2164,63.304,95.2343,264.8802,0.00018045,2.585e-05,0.0,0 STARLINK-5192,1 54074U 22136Z   23024.26254906  .00002585  00000-0  18045-3 0  9990,2 54074  53.2164  63.3040 0001343  95.2343 264.8802 15.08841402 15162,6917.876,95.437,540.67,538.812,0.0
54074.0,STARLINK-5192,PAYLOAD,2023-01-25 01:22:42,15.08838903,0.000147,53.2165,59.7378,83.1168,276.9991,0.00023761,3.496e-05,0.0,0 STARLINK-5192,1 54074U 22136Z   23025.05743399  .00003496  00000-0  23761-3 0  9990,2 54074  53.2165  59.7378 0001470  83.1168 276.9991 15.08838903 15286,6917.884,95.438,540.766,538.732,0.0
54074.0,STARLINK-5192,PAYLOAD,2023-01-25 09:19:38,15.08835725,0.0001204,53.2167,58.2514,94.5583,265.5547,0.00011733,1.58e-05,0.0,0 STARLINK-5192,1 54074U 22136Z   23025.38863487  .00001580  00000-0  11733-3 0  9995,2 54074  53.2167  58.2514 0001204  94.5583 265.5547 15.08835725 14858,6917.893,95.438,540.591,538.9259999999999,0.0
54074.0,STARLINK-5192,PAYLOAD,2023-01-25 18:51:56,15.08843313,0.0001238,53.217,56.4669,94.0636,266.0497,0.00023208,3.408e-05,0.0,0 STARLINK-5192,1 54074U 22136Z   23025.78607284  .00003408  00000-0  23208-3 0  9991,2 54074  53.2170  56.4669 0001238  94.0636 266.0497 15.08843313 14913,6917.87,95.437,540.592,538.879,0.0
54074.0,STARLINK-5192,PAYLOAD,2023-01-26 07:35:01,15.08845172,0.0001242999999999,53.2172,54.0875,93.3107,266.8027,0.00017467,2.493e-05,0.0,0 STARLINK-5192,1 54074U 22136Z   23026.31599180  .00002493  00000-0  17467-3 0  9999,2 54074  53.2172  54.0875 0001243  93.3107 266.8027 15.08845172 15473,6917.865,95.437,540.589,538.87,0.0
54074.0,STARLINK-5192,PAYLOAD,2023-01-26 09:10:24,15.08848874,0.0001235,53.2173,53.7901,92.6332,267.4801,0.00025149,3.718e-05,0.0,0 STARLINK-5192,1 54074U 22136Z   23026.38223051  .00003718  00000-0  25149-3 0  9994,2 54074  53.2173  53.7901 0001235  92.6332 267.4801 15.08848874 15001,6917.853,95.437,540.573,538.864,0.0
54074.0,STARLINK-5192,PAYLOAD,2023-01-27 05:50:25,15.08840734,0.0001233,53.2168,49.9231,87.85799999999999,272.2553,0.00012823,1.754e-05,0.0,0 STARLINK-5192,1 54074U 22136Z   23027.24335340  .00001754  00000-0  12823-3 0  9998,2 54074  53.2168  49.9231 0001233  87.8580 272.2553 15.08840734 15619,6917.878000000001,95.438,540.596,538.89,0.0
54074.0,STARLINK-5192,PAYLOAD,2023-01-27 09:01:11,15.08843809,0.0001105999999999,53.2167,49.328,82.9172,277.1946,0.00013074,1.794e-05,0.0,0 STARLINK-5192,1 54074U 22136Z   23027.37583208  .00001794  00000-0  13074-3 0  9993,2 54074  53.2167  49.3280 0001106  82.9172 277.1946 15.08843809 15153,6917.869000000001,95.437,540.499,538.969,0.0
54074.0,STARLINK-5192,PAYLOAD,2023-01-28 05:41:13,15.0883536,0.000112,53.217,45.4628,77.9694,282.1424,0.00012624,1.722e-05,0.0,0 STARLINK-5192,1 54074U 22136Z   23028.23695811  .00001722  00000-0  12624-3 0  9994,2 54074  53.2170  45.4628 0001120  77.9694 282.1424 15.08835360 15766,6917.895,95.438,540.534,538.985,0.0
54074.0,STARLINK-5192,PAYLOAD,2023-01-28 07:16:36,15.08841476,0.0001046,53.2176,45.1655,69.2076,290.9028,5.2126e-05,5.42e-06,0.0,0 STARLINK-5192,1 54074U 22136Z   23028.30319657  .00000542  00000-0  52126-4 0  9994,2 54074  53.2176  45.1655 0001046  69.2076 290.9028 15.08841476 15294,6917.876,95.437,540.464,539.017,0.0
54074.0,STARLINK-5192,PAYLOAD,2023-01-28 18:24:17,15.08847924,0.0001212,53.2177,43.0835,88.1899,271.9232,2.2788e-05,7.5e-07,0.0,0 STARLINK-5192,1 54074U 22136Z   23028.76687136  .00000075  00000-0  22788-4 0  9996,2 54074  53.2177  43.0835 0001212  88.1899 271.9232 15.08847924 15841,6917.856,95.437,540.56,538.883,0.0
54074.0,STARLINK-5192,PAYLOAD,2023-01-29 18:15:04,15.08844965,0.0001284,53.2179,38.6233,83.6422,276.4717,6.3679e-05,7.26e-06,0.0,0 STARLINK-5192,1 54074U 22136Z   23029.76047205  .00000726  00000-0  63679-4 0  9991,2 54074  53.2179  38.6233 0001284  83.6422 276.4717 15.08844965 15992,6917.865,95.437,540.618,538.842,0.0
54074.0,STARLINK-5192,PAYLOAD,2023-01-30 06:58:10,15.08838983,0.0001355,53.2177,36.2433,107.8841,252.2299,5.9074e-05,6.52e-06,0.0,0 STARLINK-5192,1 54074U 22136Z   23030.29039617  .00000652  00000-0  59074-4 0  9991,2 54074  53.2177  36.2433 0001355 107.8841 252.2299 15.08838983 16079,6917.883,95.438,540.686,538.811,0.0
54074.0,STARLINK-5192,PAYLOAD,2023-01-31 06:48:57,15.08842892,0.0001318,53.2181,31.7847,94.518,265.5963,6.5341e-05,7.52e-06,0.0,0 STARLINK-5192,1 54074U 22136Z   23031.28399486  .00000752  00000-0  65341-4 0  9999,2 54074  53.2181  31.7847 0001318  94.5180 265.5963 15.08842892 15742,6917.872,95.437,540.648,538.825,0.0
54074.0,STARLINK-5192,PAYLOAD,2023-02-01 06:39:43,15.08848414,0.000144,53.2196,27.3263,92.2123,267.9034,1.281e-05,-8.4e-07,0.0,0 STARLINK-5192,1 54074U 22136Z   23032.27759212 -.00000084  00000-0  12810-4 0  9998,2 54074  53.2196  27.3263 0001440  92.2123 267.9034 15.08848414 16370,6917.855,95.437,540.716,538.723,0.0
54074.0,STARLINK-5192,PAYLOAD,2023-02-01 08:15:07,15.08843416,0.0001362,53.2197,27.0289,100.5385,259.5761,0.00012899,1.766e-05,0.0,0 STARLINK-5192,1 54074U 22136Z   23032.34383358  .00001766  00000-0  12899-3 0  9993,2 54074  53.2197  27.0289 0001362 100.5385 259.5761 15.08843416 15901,6917.87,95.437,540.677,538.793,0.0
